[{"OBJECT_NAME":"HODOYOSHI-4","OBJECT_ID":"2014-033B","EPOCH":"2026-03-09T23:32:21.950304","MEAN_MOTION":14.87847067,"ECCENTRICITY":0.0022404,"INCLINATION":97.5452,"RA_OF_ASC_NODE":258.5987,"ARG_OF_PERICENTER":275.1008,"MEAN_ANOMALY":84.7652,"EPHEMERIS_TYPE":0,"CLASSIFICATION_TYPE":"U","NORAD_CAT_ID":40011,"ELEMENT_SET_NO":999,"REV_AT_EPOCH":63405,"BSTAR":0.00030167959,"MEAN_MOTION_DOT":2.718e-5,"MEAN_MOTION_DDOT":0},{"OBJECT_NAME":"CZ-4B DEB","OBJECT_ID":"1999-057SK","EPOCH":"2026-03-06T05:57:49.055616","MEAN_MOTION":14.76602797,"ECCENTRICITY":0.00698326,"INCLINATION":98.5391,"RA_OF_ASC_NODE":176.1702,"ARG_OF_PERICENTER":278.2505,"MEAN_ANOMALY":111.4922,"EPHEMERIS_TYPE":0,"CLASSIFICATION_TYPE":"U","NORAD_CAT_ID":35331,"ELEMENT_SET_NO":999,"REV_AT_EPOCH":64304,"BSTAR":0.0017455011,"MEAN_MOTION_DOT":0.00012645,"MEAN_MOTION_DDOT":0}]
